{
  "norad_id": 58277,
  "name": "TIGER-5",
  "history": [
    {
      "epoch": "2026-03-28T19:03:04.033152Z",
      "apogee_km": 308.3310248230491,
      "perigee_km": 304.98194328753743,
      "latitude_deg": -2.1388080807229342e-05,
      "longitude_deg": 72.15616035920291,
      "height_km": 309.6815761841497,
      "semi_major_axis_km": 6684.793484055293,
      "eccentricity": 0.0002505,
      "inclination_deg": 97.3788,
      "raan_deg": 184.1321,
      "arg_perigee_deg": 275.5334,
      "mean_anomaly_deg": 84.5652,
      "mean_motion_rev_day": 15.88439834
    },
    {
      "epoch": "2026-03-29T05:38:00.461184Z",
      "apogee_km": 307.35518627617876,
      "perigee_km": 303.8328600269788,
      "latitude_deg": -2.8168947569432775e-05,
      "longitude_deg": -86.53565683569379,
      "height_km": 308.5286332044079,
      "semi_major_axis_km": 6683.7310231515785,
      "eccentricity": 0.0002635,
      "inclination_deg": 97.3787,
      "raan_deg": 184.61,
      "arg_perigee_deg": 278.2453,
      "mean_anomaly_deg": 81.852,
      "mean_motion_rev_day": 15.88818602
    },
    {
      "epoch": "2026-03-29T05:38:00.462048Z",
      "apogee_km": 307.35518627617876,
      "perigee_km": 303.8328600269788,
      "latitude_deg": -2.8168947062070587e-05,
      "longitude_deg": -86.53566044554965,
      "height_km": 308.5286332044079,
      "semi_major_axis_km": 6683.7310231515785,
      "eccentricity": 0.0002635,
      "inclination_deg": 97.3787,
      "raan_deg": 184.61,
      "arg_perigee_deg": 278.2453,
      "mean_anomaly_deg": 81.852,
      "mean_motion_rev_day": 15.88818602
    },
    {
      "epoch": "2026-03-30T11:51:17.911584Z",
      "apogee_km": 304.77870381552293,
      "perigee_km": 300.44650492707297,
      "latitude_deg": -1.8586788966287407e-05,
      "longitude_deg": -179.73322058729323,
      "height_km": 305.35214073774614,
      "semi_major_axis_km": 6680.749604371298,
      "eccentricity": 0.00032423,
      "inclination_deg": 97.3789,
      "raan_deg": 185.9763,
      "arg_perigee_deg": 281.9804,
      "mean_anomaly_deg": 78.1105,
      "mean_motion_rev_day": 15.89882284
    },
    {
      "epoch": "2026-03-30T17:53:48.696000Z",
      "apogee_km": 304.2420689448354,
      "perigee_km": 299.7742542578526,
      "latitude_deg": 6.508246576641568e-05,
      "longitude_deg": 89.66386914723721,
      "height_km": 304.6952681845244,
      "semi_major_axis_km": 6680.145161601344,
      "eccentricity": 0.00033441,
      "inclination_deg": 97.3792,
      "raan_deg": 186.2498,
      "arg_perigee_deg": 282.9972,
      "mean_anomaly_deg": 77.0928,
      "mean_motion_rev_day": 15.90098076
    },
    {
      "epoch": "2026-03-31T05:58:41.026944Z",
      "apogee_km": 303.0626931726092,
      "perigee_km": 298.4903089897689,
      "latitude_deg": -2.2710082881624128e-05,
      "longitude_deg": -91.50332188215079,
      "height_km": 303.5528079821008,
      "semi_major_axis_km": 6678.913501081189,
      "eccentricity": 0.0003423,
      "inclination_deg": 97.3795,
      "raan_deg": 186.7968,
      "arg_perigee_deg": 280.4314,
      "mean_anomaly_deg": 79.6573,
      "mean_motion_rev_day": 15.90537942
    },
    {
      "epoch": "2026-04-01T06:07:51.218688Z",
      "apogee_km": 301.0621200044234,
      "perigee_km": 295.8170014583129,
      "latitude_deg": 2.075178743846834e-05,
      "longitude_deg": -93.6925132346366,
      "height_km": 301.1244082684566,
      "semi_major_axis_km": 6676.576560731368,
      "eccentricity": 0.0003928,
      "inclination_deg": 97.38,
      "raan_deg": 187.892,
      "arg_perigee_deg": 281.1458,
      "mean_anomaly_deg": 78.9374,
      "mean_motion_rev_day": 15.91373097
    },
    {
      "epoch": "2026-04-02T16:49:36.877728Z",
      "apogee_km": 297.3567226956329,
      "perigee_km": 291.6209335337844,
      "latitude_deg": 2.1028477165444224e-05,
      "longitude_deg": 106.01762737663694,
      "height_km": 296.976592635205,
      "semi_major_axis_km": 6672.625828114708,
      "eccentricity": 0.0004298,
      "inclination_deg": 97.378,
      "raan_deg": 189.4673,
      "arg_perigee_deg": 284.2561,
      "mean_anomaly_deg": 75.8236,
      "mean_motion_rev_day": 15.92786638
    },
    {
      "epoch": "2026-04-02T16:49:36.878592Z",
      "apogee_km": 297.35698960066566,
      "perigee_km": 291.6206666287517,
      "latitude_deg": 2.546561182729947e-05,
      "longitude_deg": 106.01762319548052,
      "height_km": 296.97652689201163,
      "semi_major_axis_km": 6672.625828114708,
      "eccentricity": 0.00042984,
      "inclination_deg": 97.378,
      "raan_deg": 189.4673,
      "arg_perigee_deg": 284.2561,
      "mean_anomaly_deg": 75.8236,
      "mean_motion_rev_day": 15.92786638
    },
    {
      "epoch": "2026-04-03T18:26:54.661344Z",
      "apogee_km": 294.0147591043533,
      "perigee_km": 287.6112333179908,
      "latitude_deg": 8.054038683601421e-05,
      "longitude_deg": 81.8066794735493,
      "height_km": 293.41750379634294,
      "semi_major_axis_km": 6668.949996211171,
      "eccentricity": 0.0004801,
      "inclination_deg": 97.378,
      "raan_deg": 190.6327,
      "arg_perigee_deg": 280.651,
      "mean_anomaly_deg": 79.4225,
      "mean_motion_rev_day": 15.94103702
    },
    {
      "epoch": "2026-04-04T18:32:36.434688Z",
      "apogee_km": 290.7388215560404,
      "perigee_km": 283.83610798032714,
      "latitude_deg": 6.493177697772319e-06,
      "longitude_deg": 80.49048875353643,
      "height_km": 290.00800537853854,
      "semi_major_axis_km": 6665.4244647681835,
      "eccentricity": 0.0005178,
      "inclination_deg": 97.3763,
      "raan_deg": 191.7301,
      "arg_perigee_deg": 277.9583,
      "mean_anomaly_deg": 82.1105,
      "mean_motion_rev_day": 15.95368619
    },
    {
      "epoch": "2026-04-05T12:36:11.258784Z",
      "apogee_km": 288.57559813001353,
      "perigee_km": 281.3160361390901,
      "latitude_deg": -4.925089997076068e-06,
      "longitude_deg": 169.67740423624628,
      "height_km": 287.6322353232772,
      "semi_major_axis_km": 6663.082817134552,
      "eccentricity": 0.00054476,
      "inclination_deg": 97.3745,
      "raan_deg": 192.5538,
      "arg_perigee_deg": 278.1304,
      "mean_anomaly_deg": 81.9354,
      "mean_motion_rev_day": 15.96209698
    },
    {
      "epoch": "2026-04-05T17:06:59.712768Z",
      "apogee_km": 288.0099121762032,
      "perigee_km": 280.6918354955815,
      "latitude_deg": 2.1489858868879395e-05,
      "longitude_deg": 101.99654770739778,
      "height_km": 287.00713302923475,
      "semi_major_axis_km": 6662.487873835892,
      "eccentricity": 0.0005492,
      "inclination_deg": 97.3744,
      "raan_deg": 192.7602,
      "arg_perigee_deg": 278.5471,
      "mean_anomaly_deg": 81.5183,
      "mean_motion_rev_day": 15.96423509
    },
    {
      "epoch": "2026-04-06T05:08:58.180128Z",
      "apogee_km": 286.5030288422504,
      "perigee_km": 279.07170196474453,
      "latitude_deg": -3.277470171325526e-05,
      "longitude_deg": -78.44143431118249,
      "height_km": 285.47562686910936,
      "semi_major_axis_km": 6660.924365403497,
      "eccentricity": 0.00055783,
      "inclination_deg": 97.3738,
      "raan_deg": 193.31,
      "arg_perigee_deg": 277.9306,
      "mean_anomaly_deg": 82.1337,
      "mean_motion_rev_day": 15.96985631
    },
    {
      "epoch": "2026-04-07T12:42:56.022048Z",
      "apogee_km": 282.52006975047516,
      "perigee_km": 274.662999926235,
      "latitude_deg": 6.919539793067464e-05,
      "longitude_deg": 168.21506875229977,
      "height_km": 281.25846537778256,
      "semi_major_axis_km": 6656.728534838355,
      "eccentricity": 0.00059016,
      "inclination_deg": 97.3717,
      "raan_deg": 194.7539,
      "arg_perigee_deg": 277.8461,
      "mean_anomaly_deg": 82.2147,
      "mean_motion_rev_day": 15.98495773
    },
    {
      "epoch": "2026-04-07T18:43:29.103744Z",
      "apogee_km": 281.7206286204628,
      "perigee_km": 273.8240577756924,
      "latitude_deg": -9.621798993356772e-06,
      "longitude_deg": 78.10554911945701,
      "height_km": 280.4335428990919,
      "semi_major_axis_km": 6655.909343198077,
      "eccentricity": 0.0005932,
      "inclination_deg": 97.3712,
      "raan_deg": 195.029,
      "arg_perigee_deg": 277.8969,
      "mean_anomaly_deg": 82.1635,
      "mean_motion_rev_day": 15.9879089
    },
    {
      "epoch": "2026-04-08T12:44:43.854432Z",
      "apogee_km": 279.4945306306281,
      "perigee_km": 271.14165004111874,
      "latitude_deg": 1.511870128190793e-06,
      "longitude_deg": 167.88009772001223,
      "height_km": 277.96706088252216,
      "semi_major_axis_km": 6653.455090335873,
      "eccentricity": 0.00062771,
      "inclination_deg": 97.3701,
      "raan_deg": 195.8551,
      "arg_perigee_deg": 277.6522,
      "mean_anomaly_deg": 82.4043,
      "mean_motion_rev_day": 15.99675588
    },
    {
      "epoch": "2026-04-09T18:45:26.239680Z",
      "apogee_km": 275.3286160035341,
      "perigee_km": 266.61296551140913,
      "latitude_deg": 2.8089840402241353e-06,
      "longitude_deg": 77.84884888325308,
      "height_km": 273.66280184910636,
      "semi_major_axis_km": 6649.107790757471,
      "eccentricity": 0.0006554,
      "inclination_deg": 97.3683,
      "raan_deg": 197.233,
      "arg_perigee_deg": 276.7927,
      "mean_anomaly_deg": 83.2606,
      "mean_motion_rev_day": 16.01244687
    },
    {
      "epoch": "2026-04-10T05:15:15.050016Z",
      "apogee_km": 273.6781217656053,
      "perigee_km": 264.685363078107,
      "latitude_deg": 6.945989139886617e-05,
      "longitude_deg": -79.55272927070273,
      "height_km": 271.8629188773509,
      "semi_major_axis_km": 6647.318742421856,
      "eccentricity": 0.00067642,
      "inclination_deg": 97.3682,
      "raan_deg": 197.7159,
      "arg_perigee_deg": 276.7341,
      "mean_anomaly_deg": 83.3169,
      "mean_motion_rev_day": 16.01891165
    },
    {
      "epoch": "2026-04-11T18:42:38.157120Z",
      "apogee_km": 268.0073010690985,
      "perigee_km": 258.47426739760976,
      "latitude_deg": 1.6988552764519077e-05,
      "longitude_deg": 78.78831434656014,
      "height_km": 265.9819842613849,
      "semi_major_axis_km": 6641.377784233354,
      "eccentricity": 0.0007177,
      "inclination_deg": 97.3671,
      "raan_deg": 199.4415,
      "arg_perigee_deg": 275.6635,
      "mean_anomaly_deg": 84.3827,
      "mean_motion_rev_day": 16.04041072
    },
    {
      "epoch": "2026-04-12T12:40:19.031520Z",
      "apogee_km": 265.6065397825532,
      "perigee_km": 255.46132286530337,
      "latitude_deg": 4.621678503654579e-05,
      "longitude_deg": 169.45975338012138,
      "height_km": 263.3760718418619,
      "semi_major_axis_km": 6638.670931323928,
      "eccentricity": 0.0007641,
      "inclination_deg": 97.3658,
      "raan_deg": 200.2709,
      "arg_perigee_deg": 274.1949,
      "mean_anomaly_deg": 85.8459,
      "mean_motion_rev_day": 16.0502222
    },
    {
      "epoch": "2026-04-14T05:02:40.233696Z",
      "apogee_km": 259.67786254720977,
      "perigee_km": 248.91567756588847,
      "latitude_deg": 6.044923774984287e-05,
      "longitude_deg": -75.920032146133,
      "height_km": 257.1511335622977,
      "semi_major_axis_km": 6632.433770056548,
      "eccentricity": 0.00081133,
      "inclination_deg": 97.3632,
      "raan_deg": 202.1375,
      "arg_perigee_deg": 273.8589,
      "mean_anomaly_deg": 86.1766,
      "mean_motion_rev_day": 16.07286804
    }
  ]
}